COSMOS 2433 (720)       
1 32275U 07052A   22255.80632891 -.00000086  00000+0  00000+0 0  9999
2 32275  66.0780   1.7739 0003383 211.0165 104.0267  2.13104099115824
COSMOS 2432 (719)       
1 32276U 07052B   22256.36857071 -.00000087  00000+0  00000+0 0  9992
2 32276  66.0923   1.8571 0007695 328.4271   6.0377  2.13103430115832
COSMOS 2434 (721)       
1 32393U 07065A   22256.12630321  .00000030  00000+0  00000+0 0  9994
2 32393  64.3740 238.4328 0000468 175.6945 274.7011  2.13103197114545
COSMOS 2436 (723)       
1 32395U 07065C   22255.87780181  .00000028  00000+0  00000+0 0  9994
2 32395  64.3819 238.4996 0015012 350.6653  44.9064  2.13102907114472
COSMOS 2456 (730)       
1 36111U 09070A   22256.02756906  .00000018  00000+0  00000+0 0  9997
2 36111  64.3727 118.0468 0002613 331.2901 207.7241  2.13099345 99201
COSMOS 2457 (733)       
1 36112U 09070B   22256.36183492  .00000014  00000+0  00000+0 0  9995
2 36112  64.3557 117.9083 0005426 151.9354  51.4988  2.13101590 99217
COSMOS 2461 (735)       
1 36401U 10007B   22256.01043773 -.00000086  00000+0  00000+0 0  9997
2 36401  65.9632   0.5924 0018633  10.0812 318.8612  2.13103756 97553
COSMOS 2460 (732)       
1 36402U 10007C   22255.60366689 -.00000086  00000+0  00000+0 0  9996
2 36402  65.9496   0.5548 0001996 141.4129 184.7384  2.13106491 97542
COSMOS 2464 (736)       
1 37139U 10041C   22254.54753514  .00000019  00000+0  00000+0 0  9996
2 37139  63.9730 237.5196 0028238   5.7028 171.0964  2.13100829 93580
COSMOS 2476 (744)       
1 37867U 11064A   22256.08725890  .00000018  00000+0  00000+0 0  9996
2 37867  64.6600 119.4349 0020744 233.9476 257.0972  2.13101903 84551
COSMOS 2477 (745)       
1 37868U 11064B   22255.45954034  .00000025  00000+0  00000+0 0  9999
2 37868  64.6669 119.5217 0018046 234.6063 312.9516  2.13101776 84490
COSMOS 2475 (743)       
1 37869U 11064C   22255.47195698  .00000025  00000+0  00000+0 0  9995
2 37869  64.6757 119.5308 0021989 253.9392 261.2639  2.13102122 84509
COSMOS 2485 (747)       
1 39155U 13019A   22256.10761940  .00000018  00000+0  00000+0 0  9999
2 39155  64.8234 119.8815 0021253 229.6056 321.4637  2.13102036 73024
COSMOS 2492 (754)       
1 39620U 14012A   22256.30694353 -.00000087  00000+0  00000+0 0  9992
2 39620  65.8342   0.2005 0010969 321.6241  56.7485  2.13103320 65989
COSMOS 2500 (755)       
1 40001U 14032A   22255.97190350 -.00000087  00000+0  00000+0 0  9999
2 40001  65.7739   0.0662 0007697 190.1906 149.5689  2.13102389 64183
COSMOS 2501 (702K)      
1 40315U 14075A   22256.24658738  .00000030  00000+0  00000+0 0  9991
2 40315  63.6797 238.0953 0019476 212.4155 146.5009  2.13101406 60593
COSMOS 2514 (751)       
1 41330U 16008A   22256.22768022 -.00000087  00000+0  00000+0 0  9996
2 41330  65.5733 359.7283 0011486 206.0869 153.8809  2.13102720 51367
COSMOS 2516 (753)       
1 41554U 16032A   22256.11686223  .00000029  00000+0  00000+0 0  9996
2 41554  63.9058 238.4008 0014977 216.4146 323.0684  2.13106413 48963
COSMOS 2522 (752)       
1 42939U 17055A   22256.13983080  .00000030  00000+0  00000+0 0  9995
2 42939  64.1403 238.8213 0009977 245.1834 167.2559  2.13102024 38723
COSMOS 2527 (756)       
1 43508U 18053A   22256.22142329  .00000017  00000+0  00000+0 0  9995
2 43508  64.9877 119.8954 0007337 222.9749 284.1391  2.13102562 33012
COSMOS 2529 (757)       
1 43687U 18086A   22256.35926550  .00000032  00000+0  00000+0 0  9996
2 43687  64.3559 239.1562 0011767 264.3543 271.9524  2.13102038 30035
COSMOS 2534 (758)       
1 44299U 19030A   22255.71521251  .00000026  00000+0  00000+0 0  9997
2 44299  64.4267 239.0682 0014189 282.0206 254.7009  2.13101919 25665
COSMOS 2544 (759)       
1 44850U 19088A   22256.21661610  .00000018  00000+0  16595+1 0  9991
2 44850  64.9701 119.7460 0011260 255.7508 291.0708  2.13102342 21446
COSMOS 2545 (760)       
1 45358U 20018A   22255.17127684 -.00000088  00000+0  00000+0 0  9993
2 45358  64.9129   0.3002 0009016 235.7434  78.5018  2.13102775 19374
COSMOS 2547 (705K)      
1 46805U 20075A   22255.64663022  .00000026  00000+0  00000+0 0  9998
2 46805  64.6517 238.5207 0008678 246.4099 285.6890  2.13102993 14636
COSMOS 2557 (706K)      
1 52984U 22075A   22256.01213333 -.00000088  00000+0  10000-3 0  9997
2 52984  64.8159   2.4712 0011230 276.8071  53.6004  2.13101833  1435
